NORAD_CAT_ID,OBJECT_NAME,OBJECT_TYPE,EPOCH,MEAN_MOTION,ECCENTRICITY,INCLINATION,RA_OF_ASC_NODE,ARG_OF_PERICENTER,MEAN_ANOMALY,BSTAR,MEAN_MOTION_DOT,MEAN_MOTION_DDOT,TLE_LINE0,TLE_LINE1,TLE_LINE2,SEMIMAJOR_AXIS,PERIOD,APOGEE,PERIGEE,DECAYED
51737.0,STARLINK-3509,PAYLOAD,2022-10-14 18:53:12,15.08842216,0.0001859,53.2162,134.2353,55.1036,305.0131,0.00046901,7.185e-05,0.0,0 STARLINK-3509,1 51737U 22016Z   22287.78694587  .00007185  00000-0  46901-3 0  9993,2 51737  53.2162 134.2353 0001859  55.1036 305.0131 15.08842216 37132,6917.874,95.437,541.025,538.453,0.0
51737.0,STARLINK-3509,PAYLOAD,2022-10-15 13:57:49,15.08840407,0.0001955,53.2173,130.6683,45.996,314.1193,9.6305e-05,1.245e-05,0.0,0 STARLINK-3509,1 51737U 22016Z   22288.58182345  .00001245  00000-0  96305-4 0  9991,2 51737  53.2173 130.6683 0001955  45.9960 314.1193 15.08840407 36194,6917.879,95.438,541.097,538.3919999999998,0.0
51737.0,STARLINK-3509,PAYLOAD,2022-10-15 20:19:21,15.08848622,0.0001882,53.2169,129.4779,52.7246,307.3918,0.00010271,1.347e-05,0.0,0 STARLINK-3509,1 51737U 22016Z   22288.84677528  .00001347  00000-0  10271-3 0  9992,2 51737  53.2169 129.4779 0001882  52.7246 307.3918 15.08848622 37291,6917.854,95.437,541.021,538.4169999999998,0.0
51737.0,STARLINK-3509,PAYLOAD,2022-10-16 12:13:12,15.08844894,0.000187,53.2168,126.5037,54.1628,305.9538,-5.1271e-06,-3.700000000000001e-06,0.0,0 STARLINK-3509,1 51737U 22016Z   22289.50917803 -.00000370  00000-0 -51271-5 0  9993,2 51737  53.2168 126.5037 0001870  54.1628 305.9538 15.08844894 37392,6917.865,95.437,541.024,538.437,0.0
51737.0,STARLINK-3509,PAYLOAD,2022-10-16 18:34:45,15.08843972,0.0001768,53.2171,125.3139,56.0687,304.0473,4.8486000000000005e-06,-2.11e-06,0.0,0 STARLINK-3509,1 51737U 22016Z   22289.77413699 -.00000211  00000-0  48486-5 0  9993,2 51737  53.2171 125.3139 0001768  56.0687 304.0473 15.08843972 36379,6917.868,95.437,540.956,538.51,0.0
51737.0,STARLINK-3509,PAYLOAD,2022-10-16 23:20:55,15.08839007,0.0001857,53.217,124.4231,47.3717,312.7432,-3.2237e-05,-8.01e-06,0.0,0 STARLINK-3509,1 51737U 22016Z   22289.97286182 -.00000801  00000-0 -32237-4 0  9992,2 51737  53.2170 124.4231 0001857  47.3717 312.7432 15.08839007 36406,6917.8830000000025,95.438,541.033,538.464,0.0
51737.0,STARLINK-3509,PAYLOAD,2022-10-17 18:25:32,15.08843096,0.0001862,53.217,120.8537,52.1094,308.0066,1.7218e-05,-1.4e-07,0.0,0 STARLINK-3509,1 51737U 22016Z   22290.76773904 -.00000014  00000-0  17218-4 0  9991,2 51737  53.2170 120.8537 0001862  52.1094 308.0066 15.08843096 36520,6917.871,95.437,541.024,538.448,0.0
51737.0,STARLINK-3509,PAYLOAD,2022-10-18 11:54:47,15.08839523,0.0001793,53.2167,117.5827,49.6415,310.4734,8.0657e-05,9.96e-06,0.0,0 STARLINK-3509,1 51737U 22016Z   22291.49637935  .00000996  00000-0  80657-4 0  9990,2 51737  53.2167 117.5827 0001793  49.6415 310.4734 15.08839523 37690,6917.882,95.438,540.987,538.506,0.0
51737.0,STARLINK-3509,PAYLOAD,2022-10-18 16:40:56,15.08836758,0.0001810999999999,53.2169,116.69,53.9664,306.1495,-5.444e-06,-3.75e-06,0.0,0 STARLINK-3509,1 51737U 22016Z   22291.69510399 -.00000375  00000-0 -54440-5 0  9991,2 51737  53.2169 116.6900 0001811  53.9664 306.1495 15.08836758 36668,6917.89,95.438,541.008,538.502,0.0
51737.0,STARLINK-3509,PAYLOAD,2022-10-19 05:24:02,15.08833728,0.0001876999999999,53.217,114.3111,53.0104,307.106,8.1903e-05,1.015e-05,0.0,0 STARLINK-3509,1 51737U 22016Z   22292.22502550  .00001015  00000-0  81903-4 0  9994,2 51737  53.2170 114.3111 0001877  53.0104 307.1060 15.08833728 37801,6917.9,95.438,541.063,538.466,0.0
51737.0,STARLINK-3509,PAYLOAD,2022-10-19 11:45:34,15.08838673,0.0001837,53.2166,113.1211,51.8961,308.2197,9.7281e-05,1.26e-05,0.0,0 STARLINK-3509,1 51737U 22016Z   22292.48998244  .00001260  00000-0  97281-4 0  9999,2 51737  53.2166 113.1211 0001837  51.8961 308.2197 15.08838673 36780,6917.884,95.438,541.02,538.479,0.0
51737.0,STARLINK-3509,PAYLOAD,2022-10-19 19:42:29,15.08845092,0.0001878,53.2171,111.635,52.1163,307.9999,7.4198e-05,8.93e-06,0.0,0 STARLINK-3509,1 51737U 22016Z   22292.82117861  .00000893  00000-0  74198-4 0  9998,2 51737  53.2171 111.6350 0001878  52.1163 307.9999 15.08845092 36831,6917.865,95.437,541.029,538.431,0.0
51737.0,STARLINK-3509,PAYLOAD,2022-10-20 11:36:21,15.08841897,0.0001882,53.2172,108.6614,52.4746,307.6417,0.00012758,1.743e-05,0.0,0 STARLINK-3509,1 51737U 22016Z   22293.48357733  .00001743  00000-0  12758-3 0  9993,2 51737  53.2172 108.6614 0001882  52.4746 307.6417 15.08841897 36938,6917.875,95.437,541.0419999999998,538.438,0.0
51737.0,STARLINK-3509,PAYLOAD,2022-10-20 17:57:53,15.08839556,0.0001882,53.2175,107.4719,52.8986,307.2178,0.00010049,1.312e-05,0.0,0 STARLINK-3509,1 51737U 22016Z   22293.74854023  .00001312  00000-0  10049-3 0  9999,2 51737  53.2175 107.4719 0001882  52.8986 307.2178 15.08839556 38036,6917.882,95.438,541.049,538.445,0.0
51737.0,STARLINK-3509,PAYLOAD,2022-10-20 21:08:40,15.08837292,0.0001857,53.2175,106.8774,52.2595,307.8565,7.375e-05,8.86e-06,0.0,0 STARLINK-3509,1 51737U 22016Z   22293.88102236  .00000886  00000-0  73750-4 0  9990,2 51737  53.2175 106.8774 0001857  52.2595 307.8565 15.08837292 36996,6917.889,95.438,541.038,538.469,0.0
51737.0,STARLINK-3509,PAYLOAD,2022-10-21 11:27:08,15.08844455,0.0001874,53.2175,104.201,51.1321,308.9838,7.2408e-05,8.65e-06,0.0,0 STARLINK-3509,1 51737U 22016Z   22294.47717734  .00000865  00000-0  72408-4 0  9997,2 51737  53.2175 104.2010 0001874  51.1321 308.9838 15.08844455 37080,6917.8669999999975,95.437,541.028,538.435,0.0
51737.0,STARLINK-3509,PAYLOAD,2022-10-21 17:48:40,15.08846942,0.0001867,53.2176,103.0114,52.108,308.0081,9.0439e-05,1.152e-05,0.0,0 STARLINK-3509,1 51737U 22016Z   22294.74213442  .00001152  00000-0  90439-4 0  9998,2 51737  53.2176 103.0114 0001867  52.1080 308.0081 15.08846942 37127,6917.859,95.437,541.016,538.433,0.0
51737.0,STARLINK-3509,PAYLOAD,2022-10-22 04:56:23,15.08836809,0.0001806,53.2176,100.9283,54.2575,305.8584,-4.7009e-05,-1.036e-05,0.0,0 STARLINK-3509,1 51737U 22016Z   22295.20582358 -.00001036  00000-0 -47009-4 0  9993,2 51737  53.2176 100.9283 0001806  54.2575 305.8584 15.08836809 38254,6917.89,95.438,541.005,538.506,0.0
51737.0,STARLINK-3509,PAYLOAD,2022-10-22 11:17:55,15.0883331,0.0001824,53.217,99.739,48.5872,311.5277,1.3445e-05,-7.4e-07,0.0,0 STARLINK-3509,1 51737U 22016Z   22295.47078367 -.00000074  00000-0  13445-4 0  9999,2 51737  53.2170  99.7390 0001824  48.5872 311.5277 15.08833310 37232,6917.901,95.438,541.028,538.504,0.0
51737.0,STARLINK-3509,PAYLOAD,2022-10-22 17:39:27,15.08838106,0.0001843,53.2177,98.5505,52.1323,307.9836,6.231e-05,7.04e-06,0.0,0 STARLINK-3509,1 51737U 22016Z   22295.73573983  .00000704  00000-0  62310-4 0  9996,2 51737  53.2177  98.5505 0001843  52.1323 307.9836 15.08838106 37279,6917.886,95.438,541.026,538.476,0.0
51737.0,STARLINK-3509,PAYLOAD,2022-10-23 11:08:41,15.08846302,0.0001882,53.2177,95.2798,52.2831,307.8332,5.2157e-05,5.42e-06,0.0,0 STARLINK-3509,1 51737U 22016Z   22296.46437458  .00000542  00000-0  52157-4 0  9991,2 51737  53.2177  95.2798 0001882  52.2831 307.8332 15.08846302 37384,6917.861,95.437,541.028,538.424,0.0
51737.0,STARLINK-3509,PAYLOAD,2022-10-23 17:30:15,15.0883962,0.0001849,53.218,94.0908,49.302,310.8132,-2.0168e-05,-6.09e-06,0.0,0 STARLINK-3509,1 51737U 22016Z   22296.72934076 -.00000609  00000-0 -20168-4 0  9991,2 51737  53.2180  94.0908 0001849  49.3020 310.8132 15.08839620 37420,6917.882,95.438,541.026,538.467,0.0
51737.0,STARLINK-3509,PAYLOAD,2022-10-23 20:41:01,15.08841125,0.000186,53.218,93.4957,49.6936,310.4219,-9.254e-06,-4.35e-06,0.0,0 STARLINK-3509,1 51737U 22016Z   22296.86181933 -.00000435  00000-0 -92540-5 0  9993,2 51737  53.2180  93.4957 0001860  49.6936 310.4219 15.08841125 38504,6917.877,95.437,541.029,538.455,0.0
51737.0,STARLINK-3509,PAYLOAD,2022-10-24 10:59:29,15.08836631,0.0001885999999999,53.2181,90.8196,50.1135,310.0023,7.016100000000001e-05,8.29e-06,0.0,0 STARLINK-3509,1 51737U 22016Z   22297.45798105  .00000829  00000-0  70161-4 0  9993,2 51737  53.2181  90.8196 0001886  50.1135 310.0023 15.08836631 37534,6917.891,95.438,541.06,538.451,0.0
51737.0,STARLINK-3509,PAYLOAD,2022-10-24 18:56:25,15.08831451,0.0001803,53.2178,89.3325,48.7629,311.3519,-6.5013e-06,-3.92e-06,0.0,0 STARLINK-3509,1 51737U 22016Z   22297.78918721 -.00000392  00000-0 -65013-5 0  9995,2 51737  53.2178  89.3325 0001803  48.7629 311.3519 15.08831451 37581,6917.906999999997,95.438,541.019,538.524,0.0
51737.0,STARLINK-3509,PAYLOAD,2022-10-24 20:31:48,15.08830578,0.0001841999999999,53.2178,89.0352,43.398,316.7156,4.2706e-06,-2.2e-06,0.0,0 STARLINK-3509,1 51737U 22016Z   22297.85542779 -.00000220  00000-0  42706-5 0  9992,2 51737  53.2178  89.0352 0001842  43.3980 316.7156 15.08830578 38656,6917.909000000002,95.438,541.048,538.5,0.0
51737.0,STARLINK-3509,PAYLOAD,2022-10-25 02:53:21,15.08834662,0.0001864,53.2178,87.846,44.6622,315.452,1.4213e-05,-6.2e-07,0.0,0 STARLINK-3509,1 51737U 22016Z   22298.12038511 -.00000062  00000-0  14213-4 0  9992,2 51737  53.2178  87.8460 0001864  44.6622 315.4520 15.08834662 37639,6917.897,95.438,541.0509999999998,538.472,0.0
51737.0,STARLINK-3509,PAYLOAD,2022-10-25 17:11:49,15.08839278,0.0001796,53.2178,85.1696,44.9333,315.1805,7.1437e-05,8.49e-06,0.0,0 STARLINK-3509,1 51737U 22016Z   22298.71654057  .00000849  00000-0  71437-4 0  9999,2 51737  53.2178  85.1696 0001796  44.9333 315.1805 15.08839278 38785,6917.8830000000025,95.438,540.99,538.505,0.0
51737.0,STARLINK-3509,PAYLOAD,2022-10-25 20:22:35,15.08835212,0.0001721999999999,53.2178,84.5755,42.1216,317.9908,4.7867e-05,4.74e-06,0.0,0 STARLINK-3509,1 51737U 22016Z   22298.84902399  .00000474  00000-0  47867-4 0  9992,2 51737  53.2178  84.5755 0001722  42.1216 317.9908 15.08835212 37746,6917.895,95.438,540.951,538.569,0.0
